CCSDS_OMM_VERS = 2.0
CREATION_DATE  = 
ORIGINATOR     = 

OBJECT_NAME    = SL-16 R/B
OBJECT_ID      = 1998-045B
CENTER_NAME    = EARTH
REF_FRAME      = TEME
TIME_SYSTEM    = UTC
MEAN_ELEMENT_THEORY = SGP/SGP4

EPOCH          = 2026-03-21T07:09:28.523520
MEAN_MOTION    = 14.16195465
ECCENTRICITY   = .00075453
INCLINATION    = 71.0118
RA_OF_ASC_NODE = 157.1635
ARG_OF_PERICENTER = 349.6112
MEAN_ANOMALY   = 10.4855

EPHEMERIS_TYPE = 0
CLASSIFICATION_TYPE = U
NORAD_CAT_ID   = 25407
ELEMENT_SET_NO = 999
REV_AT_EPOCH   = 42874
BSTAR          = .22007647E-4
MEAN_MOTION_DOT = -.4E-7
MEAN_MOTION_DDOT = 0

CCSDS_OMM_VERS = 2.0
CREATION_DATE  = 
ORIGINATOR     = 

OBJECT_NAME    = ISS (ZARYA)
OBJECT_ID      = 1998-067A
CENTER_NAME    = EARTH
REF_FRAME      = TEME
TIME_SYSTEM    = UTC
MEAN_ELEMENT_THEORY = SGP/SGP4

EPOCH          = 2026-03-21T03:07:41.680128
MEAN_MOTION    = 15.48410073
ECCENTRICITY   = .00063607
INCLINATION    = 51.6347
RA_OF_ASC_NODE = 15.8024
ARG_OF_PERICENTER = 214.2471
MEAN_ANOMALY   = 145.8108

EPHEMERIS_TYPE = 0
CLASSIFICATION_TYPE = U
NORAD_CAT_ID   = 25544
ELEMENT_SET_NO = 999
REV_AT_EPOCH   = 55810
BSTAR          = .20899924E-3
MEAN_MOTION_DOT = .10852E-3
MEAN_MOTION_DDOT = 0

CCSDS_OMM_VERS = 2.0
CREATION_DATE  = 
ORIGINATOR     = 

OBJECT_NAME    = CZ-4B R/B
OBJECT_ID      = 1999-025C
CENTER_NAME    = EARTH
REF_FRAME      = TEME
TIME_SYSTEM    = UTC
MEAN_ELEMENT_THEORY = SGP/SGP4

EPOCH          = 2026-03-21T02:13:42.126816
MEAN_MOTION    = 14.18267429
ECCENTRICITY   = .00362223
INCLINATION    = 98.6603
RA_OF_ASC_NODE = 124.1031
ARG_OF_PERICENTER = 313.2741
MEAN_ANOMALY   = 100.5608

EPHEMERIS_TYPE = 0
CLASSIFICATION_TYPE = U
NORAD_CAT_ID   = 25732
ELEMENT_SET_NO = 999
REV_AT_EPOCH   = 38978
BSTAR          = .39129944E-4
MEAN_MOTION_DOT = .38E-6
MEAN_MOTION_DDOT = 0

CCSDS_OMM_VERS = 2.0
CREATION_DATE  = 
ORIGINATOR     = 

OBJECT_NAME    = OKEAN-O
OBJECT_ID      = 1999-039A
CENTER_NAME    = EARTH
REF_FRAME      = TEME
TIME_SYSTEM    = UTC
MEAN_ELEMENT_THEORY = SGP/SGP4

EPOCH          = 2026-03-21T03:25:35.822208
MEAN_MOTION    = 14.80352508
ECCENTRICITY   = .00009423
INCLINATION    = 97.9418
RA_OF_ASC_NODE = 139.9165
ARG_OF_PERICENTER = 78.1000
MEAN_ANOMALY   = 282.0317

EPHEMERIS_TYPE = 0
CLASSIFICATION_TYPE = U
NORAD_CAT_ID   = 25860
ELEMENT_SET_NO = 999
REV_AT_EPOCH   = 43608
BSTAR          = .79401315E-4
MEAN_MOTION_DOT = .554E-5
MEAN_MOTION_DDOT = 0

CCSDS_OMM_VERS = 2.0
CREATION_DATE  = 
ORIGINATOR     = 

OBJECT_NAME    = SL-16 R/B
OBJECT_ID      = 1999-039B
CENTER_NAME    = EARTH
REF_FRAME      = TEME
TIME_SYSTEM    = UTC
MEAN_ELEMENT_THEORY = SGP/SGP4

EPOCH          = 2026-03-21T04:18:19.944000
MEAN_MOTION    = 14.81746312
ECCENTRICITY   = .00139869
INCLINATION    = 97.9942
RA_OF_ASC_NODE = 139.2576
ARG_OF_PERICENTER = 215.8136
MEAN_ANOMALY   = 144.2140

EPHEMERIS_TYPE = 0
CLASSIFICATION_TYPE = U
NORAD_CAT_ID   = 25861
ELEMENT_SET_NO = 999
REV_AT_EPOCH   = 43856
BSTAR          = .68531943E-4
MEAN_MOTION_DOT = .487E-5
MEAN_MOTION_DDOT = 0

CCSDS_OMM_VERS = 2.0
CREATION_DATE  = 
ORIGINATOR     = 

OBJECT_NAME    = DELTA 2 R/B
OBJECT_ID      = 1999-041E
CENTER_NAME    = EARTH
REF_FRAME      = TEME
TIME_SYSTEM    = UTC
MEAN_ELEMENT_THEORY = SGP/SGP4

EPOCH          = 2026-03-20T21:50:26.146176
MEAN_MOTION    = 14.11864775
ECCENTRICITY   = .05026105
INCLINATION    = 51.7605
RA_OF_ASC_NODE = 256.4597
ARG_OF_PERICENTER = 21.5275
MEAN_ANOMALY   = 340.6000

EPHEMERIS_TYPE = 0
CLASSIFICATION_TYPE = U
NORAD_CAT_ID   = 25876
ELEMENT_SET_NO = 999
REV_AT_EPOCH   = 36461
BSTAR          = .88581804E-4
MEAN_MOTION_DOT = .303E-5
MEAN_MOTION_DDOT = 0

CCSDS_OMM_VERS = 2.0
CREATION_DATE  = 
ORIGINATOR     = 

OBJECT_NAME    = HELIOS 1B
OBJECT_ID      = 1999-064A
CENTER_NAME    = EARTH
REF_FRAME      = TEME
TIME_SYSTEM    = UTC
MEAN_ELEMENT_THEORY = SGP/SGP4

EPOCH          = 2026-03-21T06:46:21.356832
MEAN_MOTION    = 14.87740923
ECCENTRICITY   = .00021585
INCLINATION    = 98.1683
RA_OF_ASC_NODE = 342.8656
ARG_OF_PERICENTER = 58.9417
MEAN_ANOMALY   = 301.2010

EPHEMERIS_TYPE = 0
CLASSIFICATION_TYPE = U
NORAD_CAT_ID   = 25977
ELEMENT_SET_NO = 999
REV_AT_EPOCH   = 68698
BSTAR          = .17139972E-3
MEAN_MOTION_DOT = .1504E-4
MEAN_MOTION_DDOT = 0

CCSDS_OMM_VERS = 2.0
CREATION_DATE  = 
ORIGINATOR     = 

OBJECT_NAME    = TERRA
OBJECT_ID      = 1999-068A
CENTER_NAME    = EARTH
REF_FRAME      = TEME
TIME_SYSTEM    = UTC
MEAN_ELEMENT_THEORY = SGP/SGP4

EPOCH          = 2026-03-21T05:20:30.927552
MEAN_MOTION    = 14.61026047
ECCENTRICITY   = .00033359
INCLINATION    = 97.9569
RA_OF_ASC_NODE = 133.2154
ARG_OF_PERICENTER = 126.7976
MEAN_ANOMALY   = 303.0304

EPHEMERIS_TYPE = 0
CLASSIFICATION_TYPE = U
NORAD_CAT_ID   = 25994
ELEMENT_SET_NO = 999
REV_AT_EPOCH   = 39676
BSTAR          = .81556356E-4
MEAN_MOTION_DOT = .356E-5
MEAN_MOTION_DDOT = 0

CCSDS_OMM_VERS = 2.0
CREATION_DATE  = 
ORIGINATOR     = 

OBJECT_NAME    = SL-16 R/B
OBJECT_ID      = 2000-006B
CENTER_NAME    = EARTH
REF_FRAME      = TEME
TIME_SYSTEM    = UTC
MEAN_ELEMENT_THEORY = SGP/SGP4

EPOCH          = 2026-03-21T05:54:18.046944
MEAN_MOTION    = 14.15823588
ECCENTRICITY   = .00161583
INCLINATION    = 71.0005
RA_OF_ASC_NODE = 73.5357
ARG_OF_PERICENTER = 172.0584
MEAN_ANOMALY   = 188.0798

EPHEMERIS_TYPE = 0
CLASSIFICATION_TYPE = U
NORAD_CAT_ID   = 26070
ELEMENT_SET_NO = 999
REV_AT_EPOCH   = 35019
BSTAR          = .8485486E-5
MEAN_MOTION_DOT = -.31E-6
MEAN_MOTION_DDOT = 0

CCSDS_OMM_VERS = 2.0
CREATION_DATE  = 
ORIGINATOR     = 

OBJECT_NAME    = TITAN 4B R/B
OBJECT_ID      = 2000-047B
CENTER_NAME    = EARTH
REF_FRAME      = TEME
TIME_SYSTEM    = UTC
MEAN_ELEMENT_THEORY = SGP/SGP4

EPOCH          = 2026-03-21T05:23:59.462592
MEAN_MOTION    = 15.09666887
ECCENTRICITY   = .00392692
INCLINATION    = 67.9918
RA_OF_ASC_NODE = 8.0715
ARG_OF_PERICENTER = 21.7753
MEAN_ANOMALY   = 338.5054

EPHEMERIS_TYPE = 0
CLASSIFICATION_TYPE = U
NORAD_CAT_ID   = 26474
ELEMENT_SET_NO = 999
REV_AT_EPOCH   = 39465
BSTAR          = .26198728E-3
MEAN_MOTION_DOT = .4169E-4
MEAN_MOTION_DDOT = 0

CCSDS_OMM_VERS = 2.0
CREATION_DATE  = 
ORIGINATOR     = 

OBJECT_NAME    = ENVISAT
OBJECT_ID      = 2002-009A
CENTER_NAME    = EARTH
REF_FRAME      = TEME
TIME_SYSTEM    = UTC
MEAN_ELEMENT_THEORY = SGP/SGP4

EPOCH          = 2026-03-21T07:20:14.944992
MEAN_MOTION    = 14.39040887
ECCENTRICITY   = .00012825
INCLINATION    = 98.3749
RA_OF_ASC_NODE = 33.6278
ARG_OF_PERICENTER = 82.0730
MEAN_ANOMALY   = 43.7241

EPHEMERIS_TYPE = 0
CLASSIFICATION_TYPE = U
NORAD_CAT_ID   = 27386
ELEMENT_SET_NO = 999
REV_AT_EPOCH   = 26084
BSTAR          = .50170408E-4
MEAN_MOTION_DOT = .112E-5
MEAN_MOTION_DDOT = 0

CCSDS_OMM_VERS = 2.0
CREATION_DATE  = 
ORIGINATOR     = 

OBJECT_NAME    = IDEFIX & ARIANE 42P R/B
OBJECT_ID      = 2002-021B
CENTER_NAME    = EARTH
REF_FRAME      = TEME
TIME_SYSTEM    = UTC
MEAN_ELEMENT_THEORY = SGP/SGP4

EPOCH          = 2026-03-21T02:27:39.964032
MEAN_MOTION    = 14.31033344
ECCENTRICITY   = .00122356
INCLINATION    = 98.5883
RA_OF_ASC_NODE = 18.5732
ARG_OF_PERICENTER = 148.9619
MEAN_ANOMALY   = 211.2289

EPHEMERIS_TYPE = 0
CLASSIFICATION_TYPE = U
NORAD_CAT_ID   = 27422
ELEMENT_SET_NO = 999
REV_AT_EPOCH   = 24565
BSTAR          = .10082647E-3
MEAN_MOTION_DOT = .222E-5
MEAN_MOTION_DDOT = 0

