SL-16 R/B               
1 25407U 98045B   26080.29824680 -.00000004  00000+0  22008-4 0  9999
2 25407  71.0118 157.1635 0007545 349.6112  10.4855 14.16195465428743
ISS (ZARYA)             
1 25544U 98067A   26080.13034352  .00010852  00000+0  20900-3 0  9996
2 25544  51.6347  15.8024 0006360 214.2471 145.8108 15.48410073558103
CZ-4B R/B               
1 25732U 99025C   26080.09284869  .00000038  00000+0  39130-4 0  9996
2 25732  98.6603 124.1031 0036222 313.2741 100.5608 14.18267429389780
OKEAN-O                 
1 25860U 99039A   26080.14277572  .00000554  00000+0  79401-4 0  9990
2 25860  97.9418 139.9165 0000942  78.1000 282.0317 14.80352508436086
SL-16 R/B               
1 25861U 99039B   26080.17939750  .00000487  00000+0  68532-4 0  9995
2 25861  97.9942 139.2576 0013986 215.8136 144.2140 14.81746312438569
DELTA 2 R/B             
1 25876U 99041E   26079.91002484  .00000303  00000+0  88582-4 0  9993
2 25876  51.7605 256.4597 0502610  21.5275 340.6000 14.11864775364615
HELIOS 1B               
1 25977U 99064A   26080.28219163  .00001504  00000+0  17140-3 0  9991
2 25977  98.1683 342.8656 0002158  58.9417 301.2010 14.87740923686980
TERRA                   
1 25994U 99068A   26080.22258018  .00000356  00000+0  81556-4 0  9997
2 25994  97.9569 133.2154 0003335 126.7976 303.0304 14.61026047396762
SL-16 R/B               
1 26070U 00006B   26080.24604221 -.00000031  00000+0  84855-5 0  9997
2 26070  71.0005  73.5357 0016158 172.0584 188.0798 14.15823588350192
TITAN 4B R/B            
1 26474U 00047B   26080.22499378  .00004169  00000+0  26199-3 0  9993
2 26474  67.9918   8.0715 0039269  21.7753 338.5054 15.09666887394651
ENVISAT                 
1 27386U 02009A   26080.30572853  .00000112  00000+0  50170-4 0  9996
2 27386  98.3749  33.6278 0001282  82.0730  43.7241 14.39040887260845
IDEFIX & ARIANE 42P R/B 
1 27422U 02021B   26080.10254588  .00000222  00000+0  10083-3 0  9991
2 27422  98.5883  18.5732 0012235 148.9619 211.2289 14.31033344245650
